HELIOS 1B               
1 25977U 99064A   21069.89026133  .00000048  00000-0  13150-4 0  9994
2 25977  98.3073 240.5654 0001418 148.3200 211.8098 14.82537803414593
TERRA                   
1 25994U 99068A   21069.89900161  .00000061  00000-0  23508-4 0  9992
2 25994  98.1841 146.0934 0001255  93.2444 355.3523 14.57124028128997
SL-16 R/B               
1 26070U 00006B   21070.15484076 -.00000277  00000-0 -11756-3 0  9997
2 26070  71.0045 332.8110 0014179  76.4971 283.7730 14.15470880 90331
MTI                     
1 26102U 00014A   21069.98018399  .00008085  00000-0  10455-3 0  9990
2 26102  97.4746 331.4352 0005858 341.2477  18.8494 15.59202231165999
TITAN 4B R/B            
1 26474U 00047B   21069.67994815  .00000205  00000-0  28484-4 0  9998
2 26474  67.9932  62.8140 0061148 265.1900  94.2258 14.96099885119061
ENVISAT                 
1 27386U 02009A   21070.05666782  .00000033  00000-0  24228-4 0  9995
2 27386  98.1458  69.1556 0001315  92.9834 308.0013 14.38015868996935
IDEFIX & ARIANE 42P R/B 
1 27422U 02021B   21069.89296758  .00000005  00000-0  18498-4 0  9993
2 27422  98.3907  26.4531 0012485 158.8182 201.3520 14.29310668983226
AQUA                    
1 27424U 02022A   21069.91961916  .00000080  00000-0  27843-4 0  9991
2 27424  98.2124  12.6996 0000461 142.2728 308.4771 14.57113672  2680
CZ-4B R/B               
1 27432U 02024C   21069.94498377 -.00000017  00000-0  15115-4 0  9991
2 27432  99.0902  82.6807 0051036 143.8030 275.3338 14.14105007971319
MIDORI II (ADEOS-II)    
1 27597U 02056A   21070.10487890  .00000018  00000-0  25003-4 0  9993
2 27597  98.5543  17.4407 0000491  30.2185 329.9024 14.27487755949856
H-2A R/B                
1 27601U 02056E   21069.95559749 -.00000059  00000-0 -64898-5 0  9996
2 27601  98.2004  97.6105 0071758 202.7218 219.8576 14.31990715952834
CZ-4B R/B               
1 28059U 03049C   21069.75685039  .00000034  00000-0  19760-4 0  9995
2 28059  98.4923 355.3252 0050978  45.4465 315.0876 14.52638825921492
CZ-2C R/B               
1 28222U 04012C   21070.09130059  .00000649  00000-0  42356-4 0  9993
2 28222  97.7160  39.9901 0046274 196.0180 296.3740 15.10741150926280
SL-16 R/B               
1 28353U 04021B   21069.50775433 -.00000314  00000-0 -13969-3 0  9991
2 28353  70.9990 101.3327 0007621 283.9407  76.0868 14.14238039864753
CZ-4B R/B               
1 28415U 04035C   21069.83763452 -.00000083  00000-0 -10707-5 0  9991
2 28415  97.5792 113.9635 0051906 162.2268 198.0791 15.07045015903754
CZ-2C R/B               
1 28480U 04046B   21069.95897734  .00000062  00000-0  37988-4 0  9993
2 28480  98.0566  89.8788 0142450 155.2587 265.1622 14.25744301848392
ARIANE 5 R/B            
1 28499U 04049H   21069.88625609  .00000090  00000-0  18287-4 0  9990
2 28499  98.0610 178.6784 0093114 131.7323 343.9134 14.80098126875508
CZ-2D R/B               
1 28738U 05024B   21069.92560634  .00000552  00000-0  35457-4 0  9992
2 28738  97.3677  89.4199 0011421 350.9612   9.1411 15.12299382861670
SUZAKU (ASTRO-EII)      
1 28773U 05025A   21069.49403907  .00001333  00000-0  59395-4 0  9998
2 28773  31.3816  86.1145 0004448   5.7341 354.3357 15.18158089864415
ALOS (DAICHI)           
1 28931U 06002A   21069.99045624  .00000174  00000-0  42761-4 0  9994
2 28931  97.8767  49.0995 0001541  34.0710 326.0582 14.62807735806666
H-2A R/B                
1 28932U 06002B   21070.04054868  .00000437  00000-0  45912-4 0  9996
2 28932  98.3324  81.3154 0088665 168.6925 255.2541 14.92465703821014
AKARI (ASTRO-F)         
1 28939U 06005A   21069.92099594  .00003416  00000-0  87364-4 0  9993
2 28939  98.2494  81.3516 0090559 110.6646 250.4334 15.36154557821773
RESURS-DK 1             
1 29228U 06021A   21070.16315910  .00000121  00000-0  16388-4 0  9992
2 29228  69.9345 228.9765 0002812  11.4662 348.6563 15.02654261812809
GENESIS 1               
1 29252U 06029A   21070.17077140  .00000321  00000-0  25419-4 0  9995
2 29252  64.5211 149.0081 0032885 335.5194  24.4366 15.18509844808679
CZ-4B R/B               
1 29507U 06046C   21070.08157942  .00000842  00000-0  69814-4 0  9991
2 29507  97.7210  96.5208 0048472 348.6246  11.3878 15.00691109785403
CZ-2C R/B               
1 31114U 07010B   21069.56725326  .00000076  00000-0  54007-4 0  9995
2 31114  98.2378 270.1991 0059106 210.2874 149.4883 14.19348990720760
COSMO-SKYMED 1          
1 31598U 07023A   21070.07686690  .00000202  00000-0  31974-4 0  9992
2 31598  97.8869 255.3648 0001495  89.6105 270.5284 14.82156293744325
GENESIS 2               
1 31789U 07028A   21069.88148507  .00000643  00000-0  41797-4 0  9999
2 31789  64.5071 192.1225 0022572 211.2944 148.6837 15.17658299755597
COSMOS 2428             
1 31792U 07029A   21070.16570297  .00000027  00000-0  40907-4 0  9990
2 31792  70.8907  72.5492 0005541   3.0771 357.0382 14.12238669706527
SL-16 R/B               
1 31793U 07029B   21069.96236007  .00000014  00000-0  32108-4 0  9995
2 31793  70.9770  46.5167 0002804 265.7076 155.2035 14.14447451707348
KORONAS-FOTON           
1 33504U 09003A   21069.94006519  .00000360  00000-0  17014-4 0  9995
2 33504  82.4426 317.6224 0020571  77.8602 282.4933 15.15898693667749
H-2A R/B                
1 38341U 12025E   21069.76302561  .00000241  00000-0  35513-4 0  9995
2 38341  98.5234 248.5061 0056627  96.4851 264.2813 14.84184561476866
CUSAT 2 & FALCON 9 R/B  
1 39271U 13055G   21069.83187076  .00006498  00000-0  15103-3 0  9994
2 39271  80.9684 339.8075 0576195  87.2994 279.3979 14.51275217389322
SL-4 R/B                
1 39679U 14021B   21070.03916678  .00000525  00000-0  43168-4 0  9990
2 39679  51.6158 309.9545 0171010 149.6593 211.4411 15.06793157379539
ALOS-2                  
1 39766U 14029A   21070.25511709  .00000220  00000-0  36325-4 0  9994
2 39766  97.9192 169.0325 0001737  97.9064 262.2340 14.79475282367148
CZ-2C R/B               
1 40306U 14071B   21069.92319590  .00004918  00000-0  98076-4 0  9998
2 40306  97.3591  25.6656 0012419 275.0830  84.9003 15.47284634355013
SL-27 R/B               
1 40354U 14084B   21069.92772251  .00001385  00000-0  34221-4 0  9999
2 40354  74.7382 196.5797 0038091 251.8014 107.9050 15.40848671349164
YAOGAN 29               
1 41038U 15069A   21070.00292301  .00000051  00000-0  13609-4 0  9993
2 41038  98.0334  63.8631 0002292  96.1613 263.9873 14.80490413285718
ASTRO-H (HITOMI)        
1 41337U 16012A   21070.20197785  .00000327  00000-0  19463-4 0  9996
2 41337  31.0049 118.3305 0012328 187.6687 172.3760 14.98796954277551
HXMT (HUIYAN)           
1 42758U 17034A   21070.16916881  .00000492  00000-0  44113-4 0  9993
2 42758  43.0184  12.5693 0010830 265.9873 227.5012 15.09092591206161
CZ-2C R/B               
1 43521U 18054D   21069.86080393  .00000717  00000-0  40488-4 0  9991
2 43521  35.1548 337.7547 0082810 307.6240  51.6980 15.11348706149470
AEOLUS                  
1 43600U 18066A   21070.17735009  .00034154  00000-0  13221-3 0  9995
2 43600  96.7180  78.5232 0007523  82.5091 277.7037 15.87119609147669
SAOCOM 1A               
1 43641U 18076A   21070.08530321  .00000021  00000-0  92492-5 0  9996
2 43641  97.8889 258.4050 0001530  82.7664 277.3728 14.82151622131097
CREW DRAGON DEMO-1 DEB  
1 44064U 19011B   21069.33701477  .00050579  00000-0  28209-3 0  9990
2 44064  51.6261  34.9768 0002615  35.8236 324.2940 15.78892472114686
SAOCOM 1B               
1 46265U 20059A   21070.04894235 -.00000347  00000-0 -37062-4 0  9992
2 46265  97.8869 257.4436 0001465  73.8824 286.2585 14.82149022 28482
CZ-2F R/B               
1 46390U 20063B   21069.56157671  .00046135  11820-4  15946-3 0  9992
2 46390  50.2008 141.8563 0010423  29.0747 331.0817 15.90091291 29669
2020-063G               
1 46395U 20063G   21069.87629719  .00017090  00000-0  81890-4 0  9992
2 46395  50.2044 144.9482 0009625  25.6651 334.4807 15.82784610 29645
